HULIANWANG DIGUI-111    
1 66921U 25285G   25346.98424852  .00000151  00000+0  18406-3 0  9996
2 66921  50.0109 116.2557 0006984 295.8980  64.1205 14.05885022   942
HULIANWANG DIGUI-112    
1 66922U 25285H   25346.91263436 -.00000149  00000+0  22420-5 0  9990
2 66922  50.0083 116.5390 0006938 301.8744  58.1486 14.06000264   938
HULIANWANG DIGUI-113    
1 66923U 25285J   25346.91236396  .00000152  00000+0  18439-3 0  9992
2 66923  50.0081 116.5386 0005407 296.8506  63.1846 14.06056501   932
CZ-8A R/B               
1 66924U 25285K   25346.87083687  .00000099  00000+0  93987-4 0  9993
2 66924  50.0065 115.5964 0119323 107.1996 254.2022 14.30501963   940
STARLINK-35945          
1 66925U 25286A   25346.83335648 -.01153772  41744-3 -25869-2 0  9994
2 66925  53.1575  50.2927 0000553  62.0146 225.5283 15.97094927  2005
STARLINK-35942          
1 66926U 25286B   25346.83335648 -.01189773  44234-3 -26389-2 0  9990
2 66926  53.1574  50.2873 0000723  65.9398 224.1090 15.97297740  2004
STARLINK-35943          
1 66927U 25286C   25346.83335648 -.01197214  44776-3 -26436-2 0  9994
2 66927  53.1574  50.2852 0000714  61.5013 229.6547 15.97379596  2005
STARLINK-35944          
1 66928U 25286D   25346.83335648 -.01183395  43766-3 -26365-2 0  9999
2 66928  53.1575  50.2897 0000642  60.7210 228.1913 15.97215804  2008
STARLINK-36169          
1 66929U 25286E   25346.83335648 -.01222237  46541-3 -26843-2 0  9994
2 66929  53.1574  50.2825 0000866  57.9423 234.4179 15.97481446  2002
STARLINK-36206          
1 66930U 25286F   25346.83335648 -.01220475  46455-3 -26694-2 0  9996
2 66930  53.1573  50.2801 0000807  58.7290 234.7121 15.97555496  2000
STARLINK-36130          
1 66931U 25286G   25346.83335648 -.01255487  48964-3 -27302-2 0  9992
2 66931  53.1573  50.2777 0000826  60.6625 234.0176 15.97664924  2008
STARLINK-36177          
1 66932U 25286H   25346.83335648 -.01253857  48892-3 -27136-2 0  9997
2 66932  53.1572  50.2751 0000781  53.5805 242.3100 15.97751199  2001
