CCSDS_OMM_VERS = 2.0
CREATION_DATE  = 
ORIGINATOR     = 

OBJECT_NAME    = HULIANWANG DIGUI-111
OBJECT_ID      = 2025-285G
CENTER_NAME    = EARTH
REF_FRAME      = TEME
TIME_SYSTEM    = UTC
MEAN_ELEMENT_THEORY = SGP/SGP4

EPOCH          = 2025-12-12T23:37:19.072128
MEAN_MOTION    = 14.05885022
ECCENTRICITY   = .00069843
INCLINATION    = 50.0109
RA_OF_ASC_NODE = 116.2557
ARG_OF_PERICENTER = 295.8980
MEAN_ANOMALY   = 64.1205

EPHEMERIS_TYPE = 0
CLASSIFICATION_TYPE = U
NORAD_CAT_ID   = 66921
ELEMENT_SET_NO = 999
REV_AT_EPOCH   = 94
BSTAR          = .18406097E-3
MEAN_MOTION_DOT = .151E-5
MEAN_MOTION_DDOT = 0

CCSDS_OMM_VERS = 2.0
CREATION_DATE  = 
ORIGINATOR     = 

OBJECT_NAME    = HULIANWANG DIGUI-112
OBJECT_ID      = 2025-285H
CENTER_NAME    = EARTH
REF_FRAME      = TEME
TIME_SYSTEM    = UTC
MEAN_ELEMENT_THEORY = SGP/SGP4

EPOCH          = 2025-12-12T21:54:11.608704
MEAN_MOTION    = 14.06000264
ECCENTRICITY   = .00069381
INCLINATION    = 50.0083
RA_OF_ASC_NODE = 116.5390
ARG_OF_PERICENTER = 301.8744
MEAN_ANOMALY   = 58.1486

EPHEMERIS_TYPE = 0
CLASSIFICATION_TYPE = U
NORAD_CAT_ID   = 66922
ELEMENT_SET_NO = 999
REV_AT_EPOCH   = 93
BSTAR          = .2241994E-5
MEAN_MOTION_DOT = -.149E-5
MEAN_MOTION_DDOT = 0

CCSDS_OMM_VERS = 2.0
CREATION_DATE  = 
ORIGINATOR     = 

OBJECT_NAME    = HULIANWANG DIGUI-113
OBJECT_ID      = 2025-285J
CENTER_NAME    = EARTH
REF_FRAME      = TEME
TIME_SYSTEM    = UTC
MEAN_ELEMENT_THEORY = SGP/SGP4

EPOCH          = 2025-12-12T21:53:48.246144
MEAN_MOTION    = 14.06056501
ECCENTRICITY   = .00054079
INCLINATION    = 50.0081
RA_OF_ASC_NODE = 116.5386
ARG_OF_PERICENTER = 296.8506
MEAN_ANOMALY   = 63.1846

EPHEMERIS_TYPE = 0
CLASSIFICATION_TYPE = U
NORAD_CAT_ID   = 66923
ELEMENT_SET_NO = 999
REV_AT_EPOCH   = 93
BSTAR          = .18439421E-3
MEAN_MOTION_DOT = .152E-5
MEAN_MOTION_DDOT = 0

CCSDS_OMM_VERS = 2.0
CREATION_DATE  = 
ORIGINATOR     = 

OBJECT_NAME    = CZ-8A R/B
OBJECT_ID      = 2025-285K
CENTER_NAME    = EARTH
REF_FRAME      = TEME
TIME_SYSTEM    = UTC
MEAN_ELEMENT_THEORY = SGP/SGP4

EPOCH          = 2025-12-12T20:54:00.305568
MEAN_MOTION    = 14.30501963
ECCENTRICITY   = .0119323
INCLINATION    = 50.0065
RA_OF_ASC_NODE = 115.5964
ARG_OF_PERICENTER = 107.1996
MEAN_ANOMALY   = 254.2022

EPHEMERIS_TYPE = 0
CLASSIFICATION_TYPE = U
NORAD_CAT_ID   = 66924
ELEMENT_SET_NO = 999
REV_AT_EPOCH   = 94
BSTAR          = .93987023E-4
MEAN_MOTION_DOT = .99E-6
MEAN_MOTION_DDOT = 0

CCSDS_OMM_VERS = 2.0
CREATION_DATE  = 
ORIGINATOR     = 

OBJECT_NAME    = STARLINK-35945
OBJECT_ID      = 2025-286A
CENTER_NAME    = EARTH
REF_FRAME      = TEME
TIME_SYSTEM    = UTC
MEAN_ELEMENT_THEORY = SGP/SGP4

EPOCH          = 2025-12-12T20:00:01.999872
MEAN_MOTION    = 15.97094927
ECCENTRICITY   = .00005536
INCLINATION    = 53.1575
RA_OF_ASC_NODE = 50.2927
ARG_OF_PERICENTER = 62.0146
MEAN_ANOMALY   = 225.5283

EPHEMERIS_TYPE = 0
CLASSIFICATION_TYPE = U
NORAD_CAT_ID   = 66925
ELEMENT_SET_NO = 999
REV_AT_EPOCH   = 200
BSTAR          = -.25869454E-2
MEAN_MOTION_DOT = -.1153772E-1
MEAN_MOTION_DDOT = .41744107E-3

CCSDS_OMM_VERS = 2.0
CREATION_DATE  = 
ORIGINATOR     = 

OBJECT_NAME    = STARLINK-35942
OBJECT_ID      = 2025-286B
CENTER_NAME    = EARTH
REF_FRAME      = TEME
TIME_SYSTEM    = UTC
MEAN_ELEMENT_THEORY = SGP/SGP4

EPOCH          = 2025-12-12T20:00:01.999872
MEAN_MOTION    = 15.97297740
ECCENTRICITY   = .0000723
INCLINATION    = 53.1574
RA_OF_ASC_NODE = 50.2873
ARG_OF_PERICENTER = 65.9398
MEAN_ANOMALY   = 224.1090

EPHEMERIS_TYPE = 0
CLASSIFICATION_TYPE = U
NORAD_CAT_ID   = 66926
ELEMENT_SET_NO = 999
REV_AT_EPOCH   = 200
BSTAR          = -.263886E-2
MEAN_MOTION_DOT = -.1189773E-1
MEAN_MOTION_DDOT = .44233542E-3

CCSDS_OMM_VERS = 2.0
CREATION_DATE  = 
ORIGINATOR     = 

OBJECT_NAME    = STARLINK-35943
OBJECT_ID      = 2025-286C
CENTER_NAME    = EARTH
REF_FRAME      = TEME
TIME_SYSTEM    = UTC
MEAN_ELEMENT_THEORY = SGP/SGP4

EPOCH          = 2025-12-12T20:00:01.999872
MEAN_MOTION    = 15.97379596
ECCENTRICITY   = .00007142
INCLINATION    = 53.1574
RA_OF_ASC_NODE = 50.2852
ARG_OF_PERICENTER = 61.5013
MEAN_ANOMALY   = 229.6547

EPHEMERIS_TYPE = 0
CLASSIFICATION_TYPE = U
NORAD_CAT_ID   = 66927
ELEMENT_SET_NO = 999
REV_AT_EPOCH   = 200
BSTAR          = -.26435611E-2
MEAN_MOTION_DOT = -.1197214E-1
MEAN_MOTION_DDOT = .4477569E-3

CCSDS_OMM_VERS = 2.0
CREATION_DATE  = 
ORIGINATOR     = 

OBJECT_NAME    = STARLINK-35944
OBJECT_ID      = 2025-286D
CENTER_NAME    = EARTH
REF_FRAME      = TEME
TIME_SYSTEM    = UTC
MEAN_ELEMENT_THEORY = SGP/SGP4

EPOCH          = 2025-12-12T20:00:01.999872
MEAN_MOTION    = 15.97215804
ECCENTRICITY   = .0000642
INCLINATION    = 53.1575
RA_OF_ASC_NODE = 50.2897
ARG_OF_PERICENTER = 60.7210
MEAN_ANOMALY   = 228.1913

EPHEMERIS_TYPE = 0
CLASSIFICATION_TYPE = U
NORAD_CAT_ID   = 66928
ELEMENT_SET_NO = 999
REV_AT_EPOCH   = 200
BSTAR          = -.26364753E-2
MEAN_MOTION_DOT = -.1183395E-1
MEAN_MOTION_DDOT = .43766263E-3

CCSDS_OMM_VERS = 2.0
CREATION_DATE  = 
ORIGINATOR     = 

OBJECT_NAME    = STARLINK-36169
OBJECT_ID      = 2025-286E
CENTER_NAME    = EARTH
REF_FRAME      = TEME
TIME_SYSTEM    = UTC
MEAN_ELEMENT_THEORY = SGP/SGP4

EPOCH          = 2025-12-12T20:00:01.999872
MEAN_MOTION    = 15.97481446
ECCENTRICITY   = .00008669
INCLINATION    = 53.1574
RA_OF_ASC_NODE = 50.2825
ARG_OF_PERICENTER = 57.9423
MEAN_ANOMALY   = 234.4179

EPHEMERIS_TYPE = 0
CLASSIFICATION_TYPE = U
NORAD_CAT_ID   = 66929
ELEMENT_SET_NO = 999
REV_AT_EPOCH   = 200
BSTAR          = -.26842539E-2
MEAN_MOTION_DOT = -.1222237E-1
MEAN_MOTION_DDOT = .46541072E-3

CCSDS_OMM_VERS = 2.0
CREATION_DATE  = 
ORIGINATOR     = 

OBJECT_NAME    = STARLINK-36206
OBJECT_ID      = 2025-286F
CENTER_NAME    = EARTH
REF_FRAME      = TEME
TIME_SYSTEM    = UTC
MEAN_ELEMENT_THEORY = SGP/SGP4

EPOCH          = 2025-12-12T20:00:01.999872
MEAN_MOTION    = 15.97555496
ECCENTRICITY   = .0000807
INCLINATION    = 53.1573
RA_OF_ASC_NODE = 50.2801
ARG_OF_PERICENTER = 58.7290
MEAN_ANOMALY   = 234.7121

EPHEMERIS_TYPE = 0
CLASSIFICATION_TYPE = U
NORAD_CAT_ID   = 66930
ELEMENT_SET_NO = 999
REV_AT_EPOCH   = 200
BSTAR          = -.26693727E-2
MEAN_MOTION_DOT = -.1220475E-1
MEAN_MOTION_DDOT = .4645499E-3

CCSDS_OMM_VERS = 2.0
CREATION_DATE  = 
ORIGINATOR     = 

OBJECT_NAME    = STARLINK-36130
OBJECT_ID      = 2025-286G
CENTER_NAME    = EARTH
REF_FRAME      = TEME
TIME_SYSTEM    = UTC
MEAN_ELEMENT_THEORY = SGP/SGP4

EPOCH          = 2025-12-12T20:00:01.999872
MEAN_MOTION    = 15.97664924
ECCENTRICITY   = .00008269
INCLINATION    = 53.1573
RA_OF_ASC_NODE = 50.2777
ARG_OF_PERICENTER = 60.6625
MEAN_ANOMALY   = 234.0176

EPHEMERIS_TYPE = 0
CLASSIFICATION_TYPE = U
NORAD_CAT_ID   = 66931
ELEMENT_SET_NO = 999
REV_AT_EPOCH   = 200
BSTAR          = -.27302446E-2
MEAN_MOTION_DOT = -.1255487E-1
MEAN_MOTION_DDOT = .4896387E-3

CCSDS_OMM_VERS = 2.0
CREATION_DATE  = 
ORIGINATOR     = 

OBJECT_NAME    = STARLINK-36177
OBJECT_ID      = 2025-286H
CENTER_NAME    = EARTH
REF_FRAME      = TEME
TIME_SYSTEM    = UTC
MEAN_ELEMENT_THEORY = SGP/SGP4

EPOCH          = 2025-12-12T20:00:01.999872
MEAN_MOTION    = 15.97751199
ECCENTRICITY   = .00007814
INCLINATION    = 53.1572
RA_OF_ASC_NODE = 50.2751
ARG_OF_PERICENTER = 53.5805
MEAN_ANOMALY   = 242.3100

EPHEMERIS_TYPE = 0
CLASSIFICATION_TYPE = U
NORAD_CAT_ID   = 66932
ELEMENT_SET_NO = 999
REV_AT_EPOCH   = 200
BSTAR          = -.27136283E-2
MEAN_MOTION_DOT = -.1253857E-1
MEAN_MOTION_DDOT = .48892298E-3

